IONOSFERA-M 4           
1 64877U 25155B   26167.85833024  .00000034  00000+0  35356-4 0  9997
2 64877  98.6030 129.6890 0001028 119.8421 240.2858 14.21488593 46354
MICROCARB               
1 64899U 25156A   26167.74198330  .00000422  00000+0  74507-4 0  9996
2 64899  97.9832 244.8872 0014951 273.7995  86.1502 14.72325142 47906
CO3D 3                  
1 64900U 25156B   26167.59522303  .00003552  00000+0  16709-3 0  9999
2 64900  97.4333 246.2967 0001478 132.9182 227.2177 15.20207450 49447
CO3D 4                  
1 64901U 25156C   26167.46373336  .00000259  00000+0  15064-4 0  9991
2 64901  97.4332 246.1670 0000283   1.9274 358.1962 15.20193539 49423
CO3D 2                  
1 64902U 25156D   26167.82532679  .00003929  00000+0  18456-3 0  9993
2 64902  97.4332 246.4226 0001500 107.0038 253.1361 15.20194490 49472
CO3D 1                  
1 64903U 25156E   26167.82547852  .00004639  00000+0  21732-3 0  9993
2 64903  97.4331 246.4229 0001291 111.5082 248.6291 15.20193774 49476
PRSC-S1                 
1 65055U 25164A   26167.79986926  .00004043  00000+0  28089-3 0  9997
2 65055  41.1311 289.9943 0006654 341.4210  18.6360 15.06456177 48372
SENTINEL-6B             
1 66514U 25264A   26167.61737589 -.00000073  00000+0 -52860-4 0  9995
2 66514  66.0395 136.3620 0008021 269.2407  90.7689 12.80929962 27090
CAS500-3                
1 66655U 25274F   26167.74462289  .00001048  00000+0  11907-3 0  9995
2 66655  97.7446  95.8057 0006737 111.2398 248.9539 14.88320176 30080
CSG-3                   
1 67304U 26001A   26167.79397488  .00000229  00000+0  35338-4 0  9994
2 67304  97.8887 351.4014 0001371  94.4999 265.6370 14.82153523 24406
PRSC-E03                
1 68835U 26092A   26167.79059029  .00002252  00000+0  15608-3 0  9995
2 68835  38.0007  92.0187 0003796   1.0630 359.0139 15.06666894  7897
CAS500-2                
1 69013U 26100AK  26167.69154213  .00004956  00000+0  22904-3 0  9994
2 69013  97.4077  65.5552 0010755  36.3140 323.8823 15.20585580  6732
