OBJECT_NAME,OBJECT_ID,EPOCH,MEAN_MOTION,ECCENTRICITY,INCLINATION,RA_OF_ASC_NODE,ARG_OF_PERICENTER,MEAN_ANOMALY,EPHEMERIS_TYPE,CLASSIFICATION_TYPE,NORAD_CAT_ID,ELEMENT_SET_NO,REV_AT_EPOCH,BSTAR,MEAN_MOTION_DOT,MEAN_MOTION_DDOT
IONOSFERA-M 4,2025-155B,2026-06-16T20:35:59.732736,14.21488593,.0001028,98.6030,129.6890,119.8421,240.2858,0,U,64877,999,4635,.35356E-4,.34E-6,0
MICROCARB,2025-156A,2026-06-16T17:48:27.357120,14.72325142,.0014951,97.9832,244.8872,273.7995,86.1502,0,U,64899,999,4790,.74507E-4,.422E-5,0
CO3D 3,2025-156B,2026-06-16T14:17:07.269792,15.20207450,.0001478,97.4333,246.2967,132.9182,227.2177,0,U,64900,999,4944,.16709E-3,.3552E-4,0
CO3D 4,2025-156C,2026-06-16T11:07:46.562304,15.20193539,.00002837,97.4332,246.1670,1.9274,358.1962,0,U,64901,999,4942,.1506382E-4,.259E-5,0
CO3D 2,2025-156D,2026-06-16T19:48:28.234656,15.20194490,.00015,97.4332,246.4226,107.0038,253.1361,0,U,64902,999,4947,.18456E-3,.3929E-4,0
CO3D 1,2025-156E,2026-06-16T19:48:41.344128,15.20193774,.0001291,97.4331,246.4229,111.5082,248.6291,0,U,64903,999,4947,.21732E-3,.4639E-4,0
PRSC-S1,2025-164A,2026-06-16T19:11:48.704064,15.06456177,.0006654,41.1311,289.9943,341.4210,18.6360,0,U,65055,999,4837,.28089E-3,.4043E-4,0
SENTINEL-6B,2025-264A,2026-06-16T14:49:01.276896,12.80929962,.0008021,66.0395,136.3620,269.2407,90.7689,0,U,66514,999,2709,-.5286E-4,-.73E-6,0
CAS500-3,2025-274F,2026-06-16T17:52:15.417696,14.88320176,.0006737,97.7446,95.8057,111.2398,248.9539,0,U,66655,999,3008,.11907E-3,.1048E-4,0
CSG-3,2026-001A,2026-06-16T19:03:19.429632,14.82153523,.0001371,97.8887,351.4014,94.4999,265.6370,0,U,67304,999,2440,.35338E-4,.229E-5,0
PRSC-E03,2026-092A,2026-06-16T18:58:27.001056,15.06666894,.0003796,38.0007,92.0187,1.0630,359.0139,0,U,68835,999,789,.15608E-3,.2252E-4,0
CAS500-2,2026-100AK,2026-06-16T16:35:49.240032,15.20585580,.0010755,97.4077,65.5552,36.3140,323.8823,0,U,69013,999,673,.22904E-3,.4956E-4,0
